*******************************************************************************
Ephemeris / WWW_USER Mon Jul 15 19:25:06 2024 Pasadena, USA      / Horizons    
*******************************************************************************
Target body name: (2018 RB1)                      {source: JPL#5}
Center body name: Earth (399)                     {source: DE441}
Center-site name: Gemini South Obs., Cerro Pachon
*******************************************************************************
Start time      : A.D. 2018-Oct-19 23:04:00.0000 UT      
Stop  time      : A.D. 2018-Oct-20 09:51:00.0000 UT      
Step-size       : 1 minutes
*******************************************************************************
Target pole/equ : undefined
Target radii    : undefined                                                    
Center geodetic : 289.2634, -30.2406227, 2.71233  {E-lon(deg),Lat(deg),Alt(km)}
Center cylindric: 289.2634,5517.21435,-3194.81213 {E-lon(deg),Dxy(km),Dz(km)}
Center pole/equ : ITRF93                          {East-longitude positive}
Center radii    : 6378.137, 6378.137, 6356.752 km {Equator_a, b, pole_c}       
Target primary  : Sun
Vis. interferer : MOON (R_eq= 1737.400) km        {source: DE441}
Rel. light bend : Sun                             {source: DE441}
Rel. lght bnd GM: 1.3271E+11 km^3/s^2                                          
Small-body perts: Yes                             {source: SB441-N16}
Atmos refraction: NO (AIRLESS)
RA format       : HMS
Time format     : CAL 
Calendar mode   : Mixed Julian/Gregorian
RTS-only print  : NO       
EOP file        : eop.240715.p241008                                           
EOP coverage    : DATA-BASED 1962-JAN-20 TO 2024-JUL-15. PREDICTS-> 2024-OCT-07
Units conversion: 1 au= 149597870.700 km, c= 299792.458 km/s, 1 day= 86400.0 s 
Table cut-offs 1: Elevation (-90.0deg=NO ),Airmass (>38.000=NO), Daylight (YES)
Table cut-offs 2: Solar elongation (  0.0,180.0=NO ),Local Hour Angle( 0.0=NO )
Table cut-offs 3: RA/DEC angular rate (     0.0=NO )                           
*******************************************************************************
Initial IAU76/J2000 heliocentric ecliptic osculating elements (au, days, deg.):
  EPOCH=  2458368.5 ! 2018-Sep-07.00 (TDB)         Residual RMS= .299          
   EC= .2816093255492492   QR= .7991213126369837   TP= 2458438.7854507864      
   OM= 166.9631715555783   W=  267.8210074013559   IN= 5.127543488636634       
  Equivalent ICRF heliocentric cartesian coordinates (au, au/d):
   X= 9.883258176612897E-01  Y=-2.654573099408967E-01  Z=-1.095366816313374E-01
  VX= 1.112505236628486E-04 VY= 1.667631342697191E-02 VZ= 5.559084906068471E-03
Asteroid physical parameters (km, seconds, rotational period in hours):        
   GM= n.a.                RAD= n.a.               ROTPER= n.a.                
   H= 27.9                 G= .150                 B-V= n.a.                   
                           ALBEDO= n.a.            STYP= n.a.                  
*******************************************************************************
 Date__(UT)__HR:MN     R.A._________(ICRF)_________DEC
******************************************************
$$SOE
 2018-Oct-20 09:19 N   11 05 03.863087 -11 09 24.95509
 2018-Oct-20 09:20 N   11 05 03.910320 -11 09 24.80881
 2018-Oct-20 09:21 N   11 05 03.957510 -11 09 24.66249
 2018-Oct-20 09:22 N   11 05 04.004656 -11 09 24.51612
 2018-Oct-20 09:23 N   11 05 04.051759 -11 09 24.36971
 2018-Oct-20 09:24 N   11 05 04.098819 -11 09 24.22325
 2018-Oct-20 09:25 N   11 05 04.145835 -11 09 24.07675
 2018-Oct-20 09:26 N   11 05 04.192809 -11 09 23.93020
 2018-Oct-20 09:27 N   11 05 04.239739 -11 09 23.78361
 2018-Oct-20 09:28 N   11 05 04.286626 -11 09 23.63696
 2018-Oct-20 09:29 N   11 05 04.333471 -11 09 23.49027
 2018-Oct-20 09:30 N   11 05 04.380272 -11 09 23.34353
 2018-Oct-20 09:31 N   11 05 04.427031 -11 09 23.19674
 2018-Oct-20 09:32 N   11 05 04.473748 -11 09 23.04990
 2018-Oct-20 09:33 N   11 05 04.520422 -11 09 22.90301
 2018-Oct-20 09:34 N   11 05 04.567053 -11 09 22.75607
 2018-Oct-20 09:35 C   11 05 04.613642 -11 09 22.60908
 2018-Oct-20 09:36 C   11 05 04.660189 -11 09 22.46203
 2018-Oct-20 09:37 C   11 05 04.706694 -11 09 22.31494
 2018-Oct-20 09:38 C   11 05 04.753157 -11 09 22.16779
 2018-Oct-20 09:39 C   11 05 04.799578 -11 09 22.02058
 2018-Oct-20 09:40 C   11 05 04.845957 -11 09 21.87332
 2018-Oct-20 09:41 C   11 05 04.892294 -11 09 21.72601
 2018-Oct-20 09:42 C   11 05 04.938590 -11 09 21.57864
 2018-Oct-20 09:43 C   11 05 04.984844 -11 09 21.43122
 2018-Oct-20 09:44 C   11 05 05.031057 -11 09 21.28374
 2018-Oct-20 09:45 C   11 05 05.077228 -11 09 21.13620
 2018-Oct-20 09:46 C   11 05 05.123358 -11 09 20.98861
 2018-Oct-20 09:47 C   11 05 05.169447 -11 09 20.84095
 2018-Oct-20 09:48 C   11 05 05.215495 -11 09 20.69324
 2018-Oct-20 09:49 C   11 05 05.261502 -11 09 20.54547
 2018-Oct-20 09:50 C   11 05 05.307468 -11 09 20.39764
 2018-Oct-20 09:51 C   11 05 05.353393 -11 09 20.24975
